{
  "type": "FeatureCollection",
  "features": [
    {
      "type": "Feature",
      "properties": {
        "norad_id": 28054,
        "name": "DMSP 5D-3 F16 (USA 172)",
        "group": "weather",
        "lat": -64.67743915690478,
        "lon": 33.903960944063165,
        "alt_km": 846.928078201865,
        "timestamp": "2025-12-22T18:58:53.062611+00:00",
        "meta_object_name": "DMSP 5D-3 F16 (USA 172)",
        "meta_object_id": "2003-048A",
        "meta_epoch": "2025-12-22T06:00:07.106400",
        "meta_mean_motion": 14.14427513,
        "meta_eccentricity": 0.00062621,
        "meta_inclination": 99.0038,
        "meta_ra_of_asc_node": 13.7816,
        "meta_arg_of_pericenter": 290.4447,
        "meta_mean_anomaly": 131.1258,
        "meta_ephemeris_type": 0,
        "meta_classification_type": "U",
        "meta_norad_cat_id": 28054,
        "meta_element_set_no": 999,
        "meta_rev_at_epoch": 14447,
        "meta_bstar": 8.5417062e-05,
        "meta_mean_motion_dot": 1.18e-06,
        "meta_mean_motion_ddot": 0,
        "tle_line1": "1 28054U 03048A   25356.25008225  .00000118  00000+0  85417-4 0  9997",
        "tle_line2": "2 28054  99.0038  13.7816 0006262 290.4447 131.1258 14.14427513144475"
      },
      "geometry": {
        "type": "Point",
        "coordinates": [
          33.903960944063165,
          -64.67743915690478
        ]
      }
    },
    {
      "type": "Feature",
      "properties": {
        "norad_id": 28912,
        "name": "METEOSAT-9 (MSG-2)",
        "group": "weather",
        "lat": 0.9600536389590041,
        "lon": 61.896155040811486,
        "alt_km": 35746.75233173157,
        "timestamp": "2025-12-22T18:58:53.062663+00:00",
        "meta_object_name": "METEOSAT-9 (MSG-2)",
        "meta_object_id": "2005-049B",
        "meta_epoch": "2025-12-21T18:33:02.923200",
        "meta_mean_motion": 1.00267778,
        "meta_eccentricity": 0.0082444,
        "meta_inclination": 8.9481,
        "meta_ra_of_asc_node": 55.8716,
        "meta_arg_of_pericenter": 282.5202,
        "meta_mean_anomaly": 75.201,
        "meta_ephemeris_type": 0,
        "meta_classification_type": "U",
        "meta_norad_cat_id": 28912,
        "meta_element_set_no": 999,
        "meta_rev_at_epoch": 7330,
        "meta_bstar": 0,
        "meta_mean_motion_dot": 1.44e-06,
        "meta_mean_motion_ddot": 0,
        "tle_line1": "1 28912U 05049B   25355.77295050  .00000144  00000+0  00000+0 0  9992",
        "tle_line2": "2 28912   8.9481  55.8716 0082444 282.5202  75.2010  1.00267778 73305"
      },
      "geometry": {
        "type": "Point",
        "coordinates": [
          61.896155040811486,
          0.9600536389590041
        ]
      }
    },
    {
      "type": "Feature",
      "properties": {
        "norad_id": 29522,
        "name": "DMSP 5D-3 F17 (USA 191)",
        "group": "weather",
        "lat": -70.06267010272062,
        "lon": 156.87998883689664,
        "alt_km": 845.9805319496036,
        "timestamp": "2025-12-22T18:58:53.062681+00:00",
        "meta_object_name": "DMSP 5D-3 F17 (USA 191)",
        "meta_object_id": "2006-050A",
        "meta_epoch": "2025-12-22T05:54:51.445728",
        "meta_mean_motion": 14.14923667,
        "meta_eccentricity": 0.00098112,
        "meta_inclination": 98.7391,
        "meta_ra_of_asc_node": 1.4376,
        "meta_arg_of_pericenter": 196.3171,
        "meta_mean_anomaly": 163.7688,
        "meta_ephemeris_type": 0,
        "meta_classification_type": "U",
        "meta_norad_cat_id": 29522,
        "meta_element_set_no": 999,
        "meta_rev_at_epoch": 98739,
        "meta_bstar": 9.6637518e-05,
        "meta_mean_motion_dot": 1.44e-06,
        "meta_mean_motion_ddot": 0,
        "tle_line1": "1 29522U 06050A   25356.24642877  .00000144  00000+0  96638-4 0  9996",
        "tle_line2": "2 29522  98.7391   1.4376 0009811 196.3171 163.7688 14.14923667987395"
      },
      "geometry": {
        "type": "Point",
        "coordinates": [
          156.87998883689664,
          -70.06267010272062
        ]
      }
    },
    {
      "type": "Feature",
      "properties": {
        "norad_id": 32958,
        "name": "FENGYUN 3A",
        "group": "weather",
        "lat": 47.389393106707146,
        "lon": 125.65554559470722,
        "alt_km": 827.3245550602578,
        "timestamp": "2025-12-22T18:58:53.062695+00:00",
        "meta_object_name": "FENGYUN 3A",
        "meta_object_id": "2008-026A",
        "meta_epoch": "2025-12-22T06:31:12.878112",
        "meta_mean_motion": 14.19517391,
        "meta_eccentricity": 0.00076491,
        "meta_inclination": 98.6711,
        "meta_ra_of_asc_node": 295.5982,
        "meta_arg_of_pericenter": 279.5774,
        "meta_mean_anomaly": 80.4537,
        "meta_ephemeris_type": 0,
        "meta_classification_type": "U",
        "meta_norad_cat_id": 32958,
        "meta_element_set_no": 999,
        "meta_rev_at_epoch": 91030,
        "meta_bstar": 6.2014742e-05,
        "meta_mean_motion_dot": 8.7e-07,
        "meta_mean_motion_ddot": 0,
        "tle_line1": "1 32958U 08026A   25356.27167683  .00000087  00000+0  62015-4 0  9996",
        "tle_line2": "2 32958  98.6711 295.5982 0007649 279.5774  80.4537 14.19517391910309"
      },
      "geometry": {
        "type": "Point",
        "coordinates": [
          125.65554559470722,
          47.389393106707146
        ]
      }
    },
    {
      "type": "Feature",
      "properties": {
        "norad_id": 35491,
        "name": "GOES 14",
        "group": "weather",
        "lat": 0.08510054093619848,
        "lon": -99.78627809960648,
        "alt_km": 35832.859479576626,
        "timestamp": "2025-12-22T18:58:53.062715+00:00",
        "meta_object_name": "GOES 14",
        "meta_object_id": "2009-033A",
        "meta_epoch": "2025-12-22T05:52:38.091648",
        "meta_mean_motion": 1.00096974,
        "meta_eccentricity": 5.464e-05,
        "meta_inclination": 1.227,
        "meta_ra_of_asc_node": 85.3088,
        "meta_arg_of_pericenter": 186.223,
        "meta_mean_anomaly": 151.9302,
        "meta_ephemeris_type": 0,
        "meta_classification_type": "U",
        "meta_norad_cat_id": 35491,
        "meta_element_set_no": 999,
        "meta_rev_at_epoch": 481,
        "meta_bstar": 0,
        "meta_mean_motion_dot": 2.6e-07,
        "meta_mean_motion_ddot": 0,
        "tle_line1": "1 35491U 09033A   25356.24488532  .00000026  00000+0  00000+0 0  9990",
        "tle_line2": "2 35491   1.2270  85.3088 0000546 186.2230 151.9302  1.00096974  4815"
      },
      "geometry": {
        "type": "Point",
        "coordinates": [
          -99.78627809960648,
          0.08510054093619848
        ]
      }
    },
    {
      "type": "Feature",
      "properties": {
        "norad_id": 35951,
        "name": "DMSP 5D-3 F18 (USA 210)",
        "group": "weather",
        "lat": 64.32919719282792,
        "lon": 172.13383537562447,
        "alt_km": 834.9829821961757,
        "timestamp": "2025-12-22T18:58:53.062728+00:00",
        "meta_object_name": "DMSP 5D-3 F18 (USA 210)",
        "meta_object_id": "2009-057A",
        "meta_epoch": "2025-12-22T04:51:58.343904",
        "meta_mean_motion": 14.14775365,
        "meta_eccentricity": 0.00118036,
        "meta_inclination": 98.8845,
        "meta_ra_of_asc_node": 332.5566,
        "meta_arg_of_pericenter": 37.7781,
        "meta_mean_anomaly": 322.4218,
        "meta_ephemeris_type": 0,
        "meta_classification_type": "U",
        "meta_norad_cat_id": 35951,
        "meta_element_set_no": 999,
        "meta_rev_at_epoch": 83456,
        "meta_bstar": 0.00017108502,
        "meta_mean_motion_dot": 2.85e-06,
        "meta_mean_motion_ddot": 0,
        "tle_line1": "1 35951U 09057A   25356.20275861  .00000285  00000+0  17109-3 0  9991",
        "tle_line2": "2 35951  98.8845 332.5566 0011803  37.7781 322.4218 14.14775365834564"
      },
      "geometry": {
        "type": "Point",
        "coordinates": [
          172.13383537562447,
          64.32919719282792
        ]
      }
    },
    {
      "type": "Feature",
      "properties": {
        "norad_id": 36411,
        "name": "EWS-G2 (GOES 15)",
        "group": "weather",
        "lat": -0.0986769195610501,
        "lon": 77.67171205639947,
        "alt_km": 35809.33950424981,
        "timestamp": "2025-12-22T18:58:53.062742+00:00",
        "meta_object_name": "EWS-G2 (GOES 15)",
        "meta_object_id": "2010-008A",
        "meta_epoch": "2025-12-22T03:11:05.468352",
        "meta_mean_motion": 1.00271006,
        "meta_eccentricity": 0.00054805,
        "meta_inclination": 0.8355,
        "meta_ra_of_asc_node": 86.0788,
        "meta_arg_of_pericenter": 177.9544,
        "meta_mean_anomaly": 296.0414,
        "meta_ephemeris_type": 0,
        "meta_classification_type": "U",
        "meta_norad_cat_id": 36411,
        "meta_element_set_no": 999,
        "meta_rev_at_epoch": 5786,
        "meta_bstar": 0,
        "meta_mean_motion_dot": 6e-07,
        "meta_mean_motion_ddot": 0,
        "tle_line1": "1 36411U 10008A   25356.13270218  .00000060  00000+0  00000+0 0  9993",
        "tle_line2": "2 36411   0.8355  86.0788 0005480 177.9544 296.0414  1.00271006 57868"
      },
      "geometry": {
        "type": "Point",
        "coordinates": [
          77.67171205639947,
          -0.0986769195610501
        ]
      }
    }
  ]
}